start=new Date('2021-09-01T00:00:00.000Z').valueOf();
sats=[{"INCLINATION":"53.0571","REF_FRAME":"TEME","MEAN_ELEMENT_THEORY":"SGP4","ARG_OF_PERICENTER":"101.3919","ECCENTRICITY":"0.00015970","APOAPSIS":"548.342","GP_ID":"183840194","RA_OF_ASC_NODE":"37.7266","EPHEMERIS_TYPE":"0","COUNTRY_CODE":"US","FILE":"3106454","MEAN_MOTION_DOT":"-0.00000512","MEAN_ANOMALY":"258.7249","TLE_LINE2":"2 44716  53.0571  37.7266 0001597 101.3919 258.7249 15.06392561 99904","PERIAPSIS":"546.130","EPOCH":"2021-08-31T19:15:13.186080","TLE_LINE1":"1 44716U 19074D   21243.80223595 -.00000512  00000-0 -15481-4 0  9992","ELEMENT_SET_NO":"999","LAUNCH_DATE":"2019-11-11","DECAY_DATE":null,"OBJECT_TYPE":"PAYLOAD","OBJECT_NAME":"STARLINK-1010","OBJECT_ID":"2019-074D","CENTER_NAME":"EARTH","CLASSIFICATION_TYPE":"U","BSTAR":"-0.00001548100000","MEAN_MOTION":"15.06392561","SEMIMAJOR_AXIS":"6925.371","MEAN_MOTION_DDOT":"0.0000000000000","TIME_SYSTEM":"UTC","RCS_SIZE":"LARGE","PERIOD":"95.593","NORAD_CAT_ID":"44716","SITE":"AFETR","REV_AT_EPOCH":"9990"},{"OBJECT_NAME":"STARLINK-1011","OBJECT_TYPE":"PAYLOAD","DECAY_DATE":null,"EPOCH":"2021-08-31T19:12:34.778592","PERIAPSIS":"545.837","ELEMENT_SET_NO":"999","LAUNCH_DATE":"2019-11-11","TLE_LINE1":"1 44717U 19074E   21243.80040253 -.00000779  00000-0 -33392-4 0  9997","TLE_LINE2":"2 44717  53.0544  57.7503 0002053  89.3716 270.7508 15.06385118 99642","FILE":"3106454","COUNTRY_CODE":"US","MEAN_MOTION_DOT":"-0.00000779","MEAN_ANOMALY":"270.7508","RA_OF_ASC_NODE":"57.7503","EPHEMERIS_TYPE":"0","APOAPSIS":"548.681","ECCENTRICITY":"0.00020530","GP_ID":"183840444","REF_FRAME":"TEME","INCLINATION":"53.0544","ARG_OF_PERICENTER":"89.3716","MEAN_ELEMENT_THEORY":"SGP4","SITE":"AFETR","REV_AT_EPOCH":"9964","PERIOD":"95.593","RCS_SIZE":"LARGE","NORAD_CAT_ID":"44717","SEMIMAJOR_AXIS":"6925.394","MEAN_MOTION":"15.06385118","TIME_SYSTEM":"UTC","MEAN_MOTION_DDOT":"0.0000000000000","BSTAR":"-0.00003339200000","CLASSIFICATION_TYPE":"U","CENTER_NAME":"EARTH","OBJECT_ID":"2019-074E"},{"GP_ID":"183819010","APOAPSIS":"548.184","ECCENTRICITY":"0.00013500","MEAN_ELEMENT_THEORY":"SGP4","ARG_OF_PERICENTER":"96.5575","REF_FRAME":"TEME","INCLINATION":"53.0555","MEAN_MOTION_DOT":"-0.00000743","MEAN_ANOMALY":"263.5567","COUNTRY_CODE":"US","FILE":"3106376","EPHEMERIS_TYPE":"0","RA_OF_ASC_NODE":"37.8763","ELEMENT_SET_NO":"999","LAUNCH_DATE":"2019-11-11","TLE_LINE1":"1 44718U 19074F   21243.77274958 -.00000743  00000-0 -31016-4 0  9997","EPOCH":"2021-08-31T18:32:45.563712","PERIAPSIS":"546.314","TLE_LINE2":"2 44718  53.0555  37.8763 0001350  96.5575 263.5567 15.06388409100086","OBJECT_NAME":"STARLINK-1012","OBJECT_TYPE":"PAYLOAD","DECAY_DATE":null,"CENTER_NAME":"EARTH","OBJECT_ID":"2019-074F","CLASSIFICATION_TYPE":"U","TIME_SYSTEM":"UTC","MEAN_MOTION_DDOT":"0.0000000000000","SEMIMAJOR_AXIS":"6925.384","MEAN_MOTION":"15.06388409","BSTAR":"-0.00003101600000","SITE":"AFETR","REV_AT_EPOCH":"10008","NORAD_CAT_ID":"44718","PERIOD":"95.593","RCS_SIZE":"LARGE"},{"ECCENTRICITY":"0.00017380","APOAPSIS":"548.420","GP_ID":"183839942","INCLINATION":"53.0542","REF_FRAME":"TEME","MEAN_ELEMENT_THEORY":"SGP4","ARG_OF_PERICENTER":"109.6534","FILE":"3106454","COUNTRY_CODE":"US","MEAN_MOTION_DOT":"0.00000065","MEAN_ANOMALY":"250.4642","RA_OF_ASC_NODE":"37.5391","EPHEMERIS_TYPE":"0","PERIAPSIS":"546.012","EPOCH":"2021-08-31T20:18:54.192384","TLE_LINE1":"1 44719U 19074G   21243.84646056  .00000065  00000-0  23241-4 0  9994","LAUNCH_DATE":"2019-11-11","ELEMENT_SET_NO":"999","TLE_LINE2":"2 44719  53.0542  37.5391 0001738 109.6534 250.4642 15.06399168101059","OBJECT_NAME":"STARLINK-1013","DECAY_DATE":null,"OBJECT_TYPE":"PAYLOAD","OBJECT_ID":"2019-074G","CENTER_NAME":"EARTH","CLASSIFICATION_TYPE":"U","MEAN_MOTION":"15.06399168","SEMIMAJOR_AXIS":"6925.351","MEAN_MOTION_DDOT":"0.0000000000000","TIME_SYSTEM":"UTC","BSTAR":"0.00002324100000","SITE":"AFETR","REV_AT_EPOCH":"10105","RCS_SIZE":"LARGE","PERIOD":"95.592","NORAD_CAT_ID":"44719"},{"MEAN_MOTION":"15.06386345","SEMIMAJOR_AXIS":"6925.390","MEAN_MOTION_DDOT":"0.0000000000000","TIME_SYSTEM":"UTC","BSTAR":"-0.00001217000000","REV_AT_EPOCH":"9992","SITE":"AFETR","PERIOD":"95.593","RCS_SIZE":"LARGE","NORAD_CAT_ID":"44720","OBJECT_ID":"2019-074H","CENTER_NAME":"EARTH","CLASSIFICATION_TYPE":"U","PERIAPSIS":"546.416","EPOCH":"2021-08-31T19:09:54.144576","TLE_LINE1":"1 44720U 19074H   21243.79854334 -.00000463  00000-0 -12170-4 0  9993","LAUNCH_DATE":"2019-11-11","ELEMENT_SET_NO":"999","TLE_LINE2":"2 44720  53.0547  37.7688 0001212 106.9498 253.1624 15.06386345 99928","OBJECT_NAME":"STARLINK-1014","DECAY_DATE":null,"OBJECT_TYPE":"PAYLOAD","ECCENTRICITY":"0.00012120","APOAPSIS":"548.095","GP_ID":"183840694","INCLINATION":"53.0547","REF_FRAME":"TEME","ARG_OF_PERICENTER":"106.9498","MEAN_ELEMENT_THEORY":"SGP4","COUNTRY_CODE":"US","FILE":"3106454","MEAN_MOTION_DOT":"-0.00000463","MEAN_ANOMALY":"253.1624","RA_OF_ASC_NODE":"37.7688","EPHEMERIS_TYPE":"0"},{"OBJECT_NAME":"STARLINK-1015","OBJECT_TYPE":"PAYLOAD","DECAY_DATE":null,"ELEMENT_SET_NO":"999","LAUNCH_DATE":"2019-11-11","TLE_LINE1":"1 44721U 19074J   21243.78748735 -.00000615  00000-0 -22374-4 0  9996","EPOCH":"2021-08-31T18:53:58.907040","PERIAPSIS":"546.435","TLE_LINE2":"2 44721  53.0545  37.8056 0001145 109.3639 250.7474 15.06395399 99910","MEAN_ANOMALY":"250.7474","MEAN_MOTION_DOT":"-0.00000615","FILE":"3106454","COUNTRY_CODE":"US","EPHEMERIS_TYPE":"0","RA_OF_ASC_NODE":"37.8056","GP_ID":"183840944","APOAPSIS":"548.021","ECCENTRICITY":"0.00011450","MEAN_ELEMENT_THEORY":"SGP4","ARG_OF_PERICENTER":"109.3639","REF_FRAME":"TEME","INCLINATION":"53.0545","REV_AT_EPOCH":"9991","SITE":"AFETR","NORAD_CAT_ID":"44721","RCS_SIZE":"LARGE","PERIOD":"95.592","TIME_SYSTEM":"UTC","MEAN_MOTION_DDOT":"0.0000000000000","SEMIMAJOR_AXIS":"6925.363","MEAN_MOTION":"15.06395399","BSTAR":"-0.00002237400000","CLASSIFICATION_TYPE":"U","CENTER_NAME":"EARTH","OBJECT_ID":"2019-074J"},{"CENTER_NAME":"EARTH","OBJECT_ID":"2019-074K","CLASSIFICATION_TYPE":"U","TIME_SYSTEM":"UTC","MEAN_MOTION_DDOT":"0.0000000000000","SEMIMAJOR_AXIS":"6925.385","MEAN_MOTION":"15.06388121","BSTAR":"-0.00002192000000","REV_AT_EPOCH":"10009","SITE":"AFETR","NORAD_CAT_ID":"44722","RCS_SIZE":"LARGE","PERIOD":"95.593","GP_ID":"183818786","APOAPSIS":"548.309","ECCENTRICITY":"0.00015290","ARG_OF_PERICENTER":"110.2948","MEAN_ELEMENT_THEORY":"SGP4","REF_FRAME":"TEME","INCLINATION":"53.0554","MEAN_MOTION_DOT":"-0.00000608","MEAN_ANOMALY":"249.8205","COUNTRY_CODE":"US","FILE":"3106376","EPHEMERIS_TYPE":"0","RA_OF_ASC_NODE":"37.7916","ELEMENT_SET_NO":"999","LAUNCH_DATE":"2019-11-11","TLE_LINE1":"1 44722U 19074K   21243.79117802 -.00000608  00000-0 -21920-4 0  9991","EPOCH":"2021-08-31T18:59:17.780928","PERIAPSIS":"546.191","TLE_LINE2":"2 44722  53.0554  37.7916 0001529 110.2948 249.8205 15.06388121100093","OBJECT_NAME":"STARLINK-1016","OBJECT_TYPE":"PAYLOAD","DECAY_DATE":null},{"CENTER_NAME":"EARTH","OBJECT_ID":"2019-074L","CLASSIFICATION_TYPE":"U","BSTAR":"-0.00053998000000","SEMIMAJOR_AXIS":"6925.287","MEAN_MOTION":"15.06420132","TIME_SYSTEM":"UTC","MEAN_MOTION_DDOT":"0.0000000000000","RCS_SIZE":"LARGE","PERIOD":"95.591","NORAD_CAT_ID":"44723","REV_AT_EPOCH":"9992","SITE":"AFETR","REF_FRAME":"TEME","INCLINATION":"53.0569","ARG_OF_PERICENTER":"101.5978","MEAN_ELEMENT_THEORY":"SGP4","APOAPSIS":"548.113","ECCENTRICITY":"0.00013880","GP_ID":"183839443","RA_OF_ASC_NODE":"37.7206","EPHEMERIS_TYPE":"0","FILE":"3106454","COUNTRY_CODE":"US","MEAN_MOTION_DOT":"-0.00008320","MEAN_ANOMALY":"258.5167","TLE_LINE2":"2 44723  53.0569  37.7206 0001388 101.5978 258.5167 15.06420132 99923","EPOCH":"2021-08-31T19:20:31.728192","PERIAPSIS":"546.191","ELEMENT_SET_NO":"999","LAUNCH_DATE":"2019-11-11","TLE_LINE1":"1 44723U 19074L   21243.80592278 -.00008320  00000-0 -53998-3 0  9996","OBJECT_TYPE":"PAYLOAD","DECAY_DATE":null,"OBJECT_NAME":"STARLINK-1017"},{"MEAN_ELEMENT_THEORY":"SGP4","ARG_OF_PERICENTER":"93.1085","INCLINATION":"53.0555","REF_FRAME":"TEME","GP_ID":"183840195","ECCENTRICITY":"0.00017560","APOAPSIS":"548.453","EPHEMERIS_TYPE":"0","RA_OF_ASC_NODE":"37.5949","MEAN_ANOMALY":"267.0105","MEAN_MOTION_DOT":"-0.00000856","COUNTRY_CODE":"US","FILE":"3106454","TLE_LINE2":"2 44724  53.0555  37.5949 0001756  93.1085 267.0105 15.06392378 99922","TLE_LINE1":"1 44724U 19074M   21243.83540899 -.00000856  00000-0 -38579-4 0  9997","ELEMENT_SET_NO":"999","LAUNCH_DATE":"2019-11-11","PERIAPSIS":"546.021","EPOCH":"2021-08-31T20:02:59.336736","DECAY_DATE":null,"OBJECT_TYPE":"PAYLOAD","OBJECT_NAME":"STARLINK-1019","OBJECT_ID":"2019-074M","CENTER_NAME":"EARTH","CLASSIFICATION_TYPE":"U","BSTAR":"-0.00003857900000","MEAN_MOTION_DDOT":"0.0000000000000","TIME_SYSTEM":"UTC","MEAN_MOTION":"15.06392378","SEMIMAJOR_AXIS":"6925.372","NORAD_CAT_ID":"44724","RCS_SIZE":"LARGE","PERIOD":"95.593","SITE":"AFETR","REV_AT_EPOCH":"9992"},{"OBJECT_TYPE":"PAYLOAD","DECAY_DATE":null,"OBJECT_NAME":"STARLINK-1020","TLE_LINE2":"2 44725  53.0544  57.5681 0001937  93.6725 266.4485 15.06394865 99818","ELEMENT_SET_NO":"999","LAUNCH_DATE":"2019-11-11","TLE_LINE1":"1 44725U 19074N   21243.84093909 -.00000724  00000-0 -29700-4 0  9994","EPOCH":"2021-08-31T20:10:57.137376","PERIAPSIS":"545.888","EPHEMERIS_TYPE":"0","RA_OF_ASC_NODE":"57.5681","MEAN_MOTION_DOT":"-0.00000724","MEAN_ANOMALY":"266.4485","COUNTRY_CODE":"US","FILE":"3106373","MEAN_ELEMENT_THEORY":"SGP4","ARG_OF_PERICENTER":"93.6725","REF_FRAME":"TEME","INCLINATION":"53.0544","GP_ID":"183818800","APOAPSIS":"548.571","ECCENTRICITY":"0.00019370","NORAD_CAT_ID":"44725","PERIOD":"95.592","RCS_SIZE":"LARGE","REV_AT_EPOCH":"9981","SITE":"AFETR","BSTAR":"-0.00002970000000","TIME_SYSTEM":"UTC","MEAN_MOTION_DDOT":"0.0000000000000","SEMIMAJOR_AXIS":"6925.364","MEAN_MOTION":"15.06394865","CLASSIFICATION_TYPE":"U","CENTER_NAME":"EARTH","OBJECT_ID":"2019-074N"}];
